{"type": "FeatureCollection", "features": [ {"type": "Feature", "properties": {"norad_id": 35287, "name": "COSMOS 2251 DEB", "group": "cosmos-2251-debris", "lat": 23.78840179834133, "lon": 92.46917722580575, "alt_km": 778.8204663222405, "timestamp": "2025-12-10T18:57:00.461053+00:00", "meta": {"OBJECT_NAME": "COSMOS 2251 DEB", "OBJECT_ID": "1993-036AJR", "EPOCH": "2025-12-08T06:45:42.279840", "MEAN_MOTION": 14.36370501, "ECCENTRICITY": 0.00173563, "INCLINATION": 74.0304, "RA_OF_ASC_NODE": 284.3273, "ARG_OF_PERICENTER": 22.2122, "MEAN_ANOMALY": 130.0196, "EPHEMERIS_TYPE": 0, "CLASSIFICATION_TYPE": "U", "NORAD_CAT_ID": 35287, "ELEMENT_SET_NO": 999, "REV_AT_EPOCH": 86828, "BSTAR": 0.00029165774, "MEAN_MOTION_DOT": 8.29e-06, "MEAN_MOTION_DDOT": 0}, "tle": {"line1": "1 35287U 93036AJR 25342.28173935  .00000829  00000+0  29166-3 0  9995", "line2": "2 35287  74.0304 284.3273 0017356  22.2122 130.0196 14.36370501868289"}}, "geometry": {"type": "Point", "coordinates": [92.46917722580575, 23.78840179834133]}}, {"type": "Feature", "properties": {"norad_id": 35288, "name": "COSMOS 2251 DEB", "group": "cosmos-2251-debris", "lat": 70.43114888712549, "lon": 144.8705102011194, "alt_km": 693.0107708380865, "timestamp": "2025-12-10T18:57:00.461063+00:00", "meta": {"OBJECT_NAME": "COSMOS 2251 DEB", "OBJECT_ID": "1993-036AJS", "EPOCH": "2025-12-10T08:39:21.633120", "MEAN_MOTION": 14.6541378, "ECCENTRICITY": 0.003954, "INCLINATION": 73.951, "RA_OF_ASC_NODE": 19.7768, "ARG_OF_PERICENTER": 253.6203, "MEAN_ANOMALY": 106.0616, "EPHEMERIS_TYPE": 0, "CLASSIFICATION_TYPE": "U", "NORAD_CAT_ID": 35288, "ELEMENT_SET_NO": 999, "REV_AT_EPOCH": 87843, "BSTAR": 0.0015165, "MEAN_MOTION_DOT": 8.275e-05, "MEAN_MOTION_DDOT": 0}, "tle": {"line1": "1 35288U 93036AJS 25344.36066705  .00008275  00000+0  15165-2 0  9999", "line2": "2 35288  73.9510  19.7768 0039540 253.6203 106.0616 14.65413780878432"}}, "geometry": {"type": "Point", "coordinates": [144.8705102011194, 70.43114888712549]}}, {"type": "Feature", "properties": {"norad_id": 35290, "name": "COSMOS 2251 DEB", "group": "cosmos-2251-debris", "lat": -72.89075560971695, "lon": -5.442377329710615, "alt_km": 634.9459918976663, "timestamp": "2025-12-10T18:57:00.461073+00:00", "meta": {"OBJECT_NAME": "COSMOS 2251 DEB", "OBJECT_ID": "1993-036AJU", "EPOCH": "2025-12-09T15:45:15.254784", "MEAN_MOTION": 14.80228211, "ECCENTRICITY": 0.00025765, "INCLINATION": 74.005, "RA_OF_ASC_NODE": 65.5213, "ARG_OF_PERICENTER": 202.4691, "MEAN_ANOMALY": 157.6373, "EPHEMERIS_TYPE": 0, "CLASSIFICATION_TYPE": "U", "NORAD_CAT_ID": 35290, "ELEMENT_SET_NO": 999, "REV_AT_EPOCH": 87912, "BSTAR": 0.0031261297, "MEAN_MOTION_DOT": 0.00023834, "MEAN_MOTION_DDOT": 0}, "tle": {"line1": "1 35290U 93036AJU 25343.65642656  .00023834  00000+0  31261-2 0  9991", "line2": "2 35290  74.0050  65.5213 0002576 202.4691 157.6373 14.80228211879121"}}, "geometry": {"type": "Point", "coordinates": [-5.442377329710615, -72.89075560971695]}}, {"type": "Feature", "properties": {"norad_id": 35432, "name": "COSMOS 2251 DEB", "group": "cosmos-2251-debris", "lat": -28.82292930381396, "lon": -151.26889041054983, "alt_km": 510.36994454046726, "timestamp": "2025-12-10T18:57:00.461083+00:00", "meta": {"OBJECT_NAME": "COSMOS 2251 DEB", "OBJECT_ID": "1993-036AKA", "EPOCH": "2025-12-10T02:15:21.827232", "MEAN_MOTION": 15.22051238, "ECCENTRICITY": 0.00123831, "INCLINATION": 74.0231, "RA_OF_ASC_NODE": 21.1234, "ARG_OF_PERICENTER": 344.9904, "MEAN_ANOMALY": 15.0925, "EPHEMERIS_TYPE": 0, "CLASSIFICATION_TYPE": "U", "NORAD_CAT_ID": 35432, "ELEMENT_SET_NO": 999, "REV_AT_EPOCH": 87463, "BSTAR": 0.0070593041, "MEAN_MOTION_DOT": 0.00165457, "MEAN_MOTION_DDOT": 0}, "tle": {"line1": "1 35432U 93036AKA 25344.09400263  .00165457  00000+0  70593-2 0  9993", "line2": "2 35432  74.0231  21.1234 0012383 344.9904  15.0925 15.22051238874638"}}, "geometry": {"type": "Point", "coordinates": [-151.26889041054983, -28.82292930381396]}}, {"type": "Feature", "properties": {"norad_id": 35433, "name": "COSMOS 2251 DEB", "group": "cosmos-2251-debris", "lat": -68.85082326669662, "lon": -65.71441297656621, "alt_km": 790.2232267016207, "timestamp": "2025-12-10T18:57:00.461093+00:00", "meta": {"OBJECT_NAME": "COSMOS 2251 DEB", "OBJECT_ID": "1993-036AKB", "EPOCH": "2025-12-05T19:38:16.327392", "MEAN_MOTION": 14.34730306, "ECCENTRICITY": 0.00254596, "INCLINATION": 74.0335, "RA_OF_ASC_NODE": 351.128, "ARG_OF_PERICENTER": 48.4343, "MEAN_ANOMALY": 128.9694, "EPHEMERIS_TYPE": 0, "CLASSIFICATION_TYPE": "U", "NORAD_CAT_ID": 35433, "ELEMENT_SET_NO": 999, "REV_AT_EPOCH": 86481, "BSTAR": 0.00044039966, "MEAN_MOTION_DOT": 1.226e-05, "MEAN_MOTION_DDOT": 0}, "tle": {"line1": "1 35433U 93036AKB 25339.81824453  .00001226  00000+0  44040-3 0  9991", "line2": "2 35433  74.0335 351.1280 0025459  48.4343 128.9694 14.34730306864810"}}, "geometry": {"type": "Point", "coordinates": [-65.71441297656621, -68.85082326669662]}}, {"type": "Feature", "properties": {"norad_id": 35434, "name": "COSMOS 2251 DEB", "group": "cosmos-2251-debris", "lat": -72.38224788850455, "lon": 101.45448646670161, "alt_km": 756.449928009396, "timestamp": "2025-12-10T18:57:00.461103+00:00", "meta": {"OBJECT_NAME": "COSMOS 2251 DEB", "OBJECT_ID": "1993-036AKC", "EPOCH": "2025-12-10T09:17:45.920256", "MEAN_MOTION": 14.25676993, "ECCENTRICITY": 0.0087528, "INCLINATION": 74.0403, "RA_OF_ASC_NODE": 217.8712, "ARG_OF_PERICENTER": 289.0938, "MEAN_ANOMALY": 70.0746, "EPHEMERIS_TYPE": 0, "CLASSIFICATION_TYPE": "U", "NORAD_CAT_ID": 35434, "ELEMENT_SET_NO": 999, "REV_AT_EPOCH": 86084, "BSTAR": 0.00089339, "MEAN_MOTION_DOT": 2.18e-05, "MEAN_MOTION_DDOT": 0}, "tle": {"line1": "1 35434U 93036AKC 25344.38733704  .00002180  00000+0  89339-3 0  9998", "line2": "2 35434  74.0403 217.8712 0087528 289.0938  70.0746 14.25676993860848"}}, "geometry": {"type": "Point", "coordinates": [101.45448646670161, -72.38224788850455]}}, {"type": "Feature", "properties": {"norad_id": 35435, "name": "COSMOS 2251 DEB", "group": "cosmos-2251-debris", "lat": 73.44403354271525, "lon": -177.38301565303263, "alt_km": 629.7215861716058, "timestamp": "2025-12-10T18:57:00.461113+00:00", "meta": {"OBJECT_NAME": "COSMOS 2251 DEB", "OBJECT_ID": "1993-036AKD", "EPOCH": "2025-12-09T15:01:26.253984", "MEAN_MOTION": 14.78296996, "ECCENTRICITY": 0.0008431, "INCLINATION": 74.0096, "RA_OF_ASC_NODE": 110.1934, "ARG_OF_PERICENTER": 204.3804, "MEAN_ANOMALY": 171.3838, "EPHEMERIS_TYPE": 0, "CLASSIFICATION_TYPE": "U", "NORAD_CAT_ID": 35435, "ELEMENT_SET_NO": 999, "REV_AT_EPOCH": 87493, "BSTAR": 0.0036525, "MEAN_MOTION_DOT": 0.00026633, "MEAN_MOTION_DDOT": 0}, "tle": {"line1": "1 35435U 93036AKD 25343.62599831  .00026633  00000+0  36525-2 0  9993", "line2": "2 35435  74.0096 110.1934 0008431 204.3804 171.3838 14.78296996874937"}}, "geometry": {"type": "Point", "coordinates": [-177.38301565303263, 73.44403354271525]}}, {"type": "Feature", "properties": {"norad_id": 35439, "name": "COSMOS 2251 DEB", "group": "cosmos-2251-debris", "lat": -67.00833840107731, "lon": 0.5631495860300039, "alt_km": 820.7230279912237, "timestamp": "2025-12-10T18:57:00.461123+00:00", "meta": {"OBJECT_NAME": "COSMOS 2251 DEB", "OBJECT_ID": "1993-036AKH", "EPOCH": "2025-12-09T17:39:24.182784", "MEAN_MOTION": 13.92788449, "ECCENTRICITY": 0.02417896, "INCLINATION": 74.0194, "RA_OF_ASC_NODE": 139.886, "ARG_OF_PERICENTER": 309.8567, "MEAN_ANOMALY": 63.37, "EPHEMERIS_TYPE": 0, "CLASSIFICATION_TYPE": "U", "NORAD_CAT_ID": 35439, "ELEMENT_SET_NO": 999, "REV_AT_EPOCH": 83919, "BSTAR": 0.0021895802, "MEAN_MOTION_DOT": 3.579e-05, "MEAN_MOTION_DDOT": 0}, "tle": {"line1": "1 35439U 93036AKH 25343.73569656  .00003579  00000+0  21896-2 0  9990", "line2": "2 35439  74.0194 139.8860 0241789 309.8567  63.3700 13.92788449839199"}}, "geometry": {"type": "Point", "coordinates": [0.5631495860300039, -67.00833840107731]}}, {"type": "Feature", "properties": {"norad_id": 35440, "name": "COSMOS 2251 DEB", "group": "cosmos-2251-debris", "lat": 25.227567519053643, "lon": 23.64322358267836, "alt_km": 709.8214011028585, "timestamp": "2025-12-10T18:57:00.461133+00:00", "meta": {"OBJECT_NAME": "COSMOS 2251 DEB", "OBJECT_ID": "1993-036AKJ", "EPOCH": "2025-12-10T08:26:45.842208", "MEAN_MOTION": 14.68793955, "ECCENTRICITY": 0.0069205, "INCLINATION": 74.0146, "RA_OF_ASC_NODE": 212.2531, "ARG_OF_PERICENTER": 353.6751, "MEAN_ANOMALY": 6.3537, "EPHEMERIS_TYPE": 0, "CLASSIFICATION_TYPE": "U", "NORAD_CAT_ID": 35440, "ELEMENT_SET_NO": 999, "REV_AT_EPOCH": 68730, "BSTAR": 0.00067377, "MEAN_MOTION_DOT": 4.046e-05, "MEAN_MOTION_DDOT": 0}, "tle": {"line1": "1 35440U 93036AKJ 25344.35191947  .00004046  00000+0  67377-3 0  9990", "line2": "2 35440  74.0146 212.2531 0069205 353.6751   6.3537 14.68793955687303"}}, "geometry": {"type": "Point", "coordinates": [23.64322358267836, 25.227567519053643]}}, {"type": "Feature", "properties": {"norad_id": 35441, "name": "COSMOS 2251 DEB", "group": "cosmos-2251-debris", "lat": 28.241786746982463, "lon": 113.02881487728608, "alt_km": 666.1149002243492, "timestamp": "2025-12-10T18:57:00.461142+00:00", "meta": {"OBJECT_NAME": "COSMOS 2251 DEB", "OBJECT_ID": "1993-036AKK", "EPOCH": "2025-12-08T15:22:12.064224", "MEAN_MOTION": 14.62488563, "ECCENTRICITY": 0.0037245, "INCLINATION": 74.1346, "RA_OF_ASC_NODE": 305.9066, "ARG_OF_PERICENTER": 204.2337, "MEAN_ANOMALY": 155.708, "EPHEMERIS_TYPE": 0, "CLASSIFICATION_TYPE": "U", "NORAD_CAT_ID": 35441, "ELEMENT_SET_NO": 999, "REV_AT_EPOCH": 87370, "BSTAR": 0.0024987, "MEAN_MOTION_DOT": 0.00012785, "MEAN_MOTION_DDOT": 0}, "tle": {"line1": "1 35441U 93036AKK 25342.64041741  .00012785  00000+0  24987-2 0  9995", "line2": "2 35441  74.1346 305.9066 0037245 204.2337 155.7080 14.62488563873703"}}, "geometry": {"type": "Point", "coordinates": [113.02881487728608, 28.241786746982463]}}]}